TDRS 3                  
1 19548U 88091B   26111.49322468 -.00000305  00000+0  00000+0 0  9999
2 19548  12.6455 341.3775 0041060 355.3632   1.4829  1.00276327124818
FLTSATCOM 8 (USA 46)    
1 20253U 89077A   26111.52780481 -.00000375  00000+0  00000+0 0  9993
2 20253  12.4376 351.5060 0007591   6.1434 167.4081  1.00262792259997
SKYNET 4C               
1 20776U 90079A   26111.61698514  .00000119  00000+0  00000+0 0  9997
2 20776  13.3584 350.2014 0002658  42.8163  72.2026  1.00275785130321
TDRS 5                  
1 21639U 91054B   26111.36947501  .00000077  00000+0  00000+0 0  9998
2 21639  14.0792 354.2009 0008393 283.8103 256.7908  1.00268173127147
TDRS 6                  
1 22314U 93003B   26111.14985536 -.00000301  00000+0  00000+0 0  9992
2 22314  14.1824 357.4843 0005715 181.0532  38.8420  1.00275591121836
UFO 2 (USA 95)          
1 22787U 93056A   26111.35669740  .00000119  00000+0  00000+0 0  9999
2 22787  11.8758   3.8663 0008862 353.0455   9.5946  1.00276108117987
USA 99 (MILSTAR-1 1)    
1 22988U 94009A   26111.29379162 -.00000205  00000+0  00000+0 0  9997
2 22988  17.5337  28.3264 0003365 346.2772 210.5347  1.00273564 32386
UFO 4 (USA 108)         
1 23467U 95003A   26111.57904425 -.00000028  00000+0  00000+0 0  9995
2 23467   9.7105  13.4192 0003512  14.3166 202.6514  1.00272409114380
TDRS 7                  
1 23613U 95035B   26111.58796788 -.00000246  00000+0  00000+0 0  9997
2 23613  13.4011 348.5805 0010882  63.2610  98.4461  1.00279466112682
USA 115 (MILSTAR-1 2)   
1 23712U 95060A   26111.29496351 -.00000080  00000+0  00000+0 0  9992
2 23712  14.0538   4.1735 0000890 320.2872 237.6111  1.00365275 32318
INMARSAT 3-F1           
1 23839U 96020A   26111.21155804 -.00000277  00000+0  00000+0 0  9994
2 23839  10.4852  47.1506 0004211 326.7602 234.9099  0.99996776109686
INMARSAT 3-F2           
1 24307U 96053A   26111.55947462  .00000109  00000+0  00000+0 0  9990
2 24307   9.7311  54.5043 0006714 341.0962 220.0974  0.99992026108350
INMARSAT 3-F3           
1 24674U 96070A   26111.30935481 -.00000283  00000+0  00000+0 0  9991
2 24674  10.1977  50.1872 0004976 317.9351  55.6631  0.99980526107347
AMC-3                   
1 24936U 97050A   26111.27477466 -.00000265  00000+0  00000+0 0  9991
2 24936   8.0084  64.7221 0002999 327.3068 204.2299  1.00269872 51869
USA 134                 
1 25019U 97065A   26111.38371486 -.00000068  00000+0  00000+0 0  9998
2 25019  12.7187  22.1463 0005994 321.0432 252.0219  1.00274867 32387
INMARSAT 3-F5           
1 25153U 98006B   26111.29406103 -.00000295  00000+0  00000+0 0  9990
2 25153   9.5689  53.8123 0004774 333.0612 234.3622  1.00273497103321
ABS-6                   
1 25924U 99053A   26111.17788096 -.00000122  00000+0  00000+0 0  9999
2 25924   0.0357  95.2762 0003252 315.4519  21.5988  1.00278687 97266
UFO 10 (USA 146)        
1 25967U 99063A   26107.12127912 -.00000179  00000+0  00000+0 0  9993
2 25967   9.8559  27.5336 0003913 326.7730 231.8326  1.00274470 96732
ASIASTAR                
1 26107U 00016A   26111.48752907 -.00000338  00000+0  00000+0 0  9999
2 26107   9.0007  58.7499 0004837 337.5566  93.7707  1.00269450 95355
USA 149 (DSP 20)        
1 26356U 00024A   26111.39887441  .00000089  00000+0  00000+0 0  9998
2 26356  13.1296  12.2549 0001352 335.1859 200.2651  1.00273663 32340
TDRS 8                  
1 26388U 00034A   26111.61680279 -.00000198  00000+0  00000+0 0  9991
2 26388  12.5965  31.7969 0005673 343.1443 141.4510  1.00267336 94619
NSS-11                  
1 26554U 00059A   26111.39514773  .00000020  00000+0  00000+0 0  9996
2 26554   1.9807  82.0178 0002707 299.9513 145.7491  1.00270961 40729
USA 153                 
1 26575U 00065A   26111.52949892 -.00000329  00000+0  00000+0 0  9998
2 26575  11.5297  35.8851 0003570  28.0777 110.7744  1.00269607 32367
AMC-6                   
1 26580U 00067A   26111.53030613  .00000082  00000+0  00000+0 0  9994
2 26580   0.0814  69.3268 0003690 334.9148 221.2345  1.00272316 93328
USA 157 (MILSTAR-2 2)   
1 26715U 01009A   26111.49106307  .00000104  00000+0  00000+0 0  9995
2 26715  11.4822  20.1136 0037824 181.6281  34.5353  1.00274078 32372
USA 159 (DSP 21)        
1 26880U 01033A   26111.61962891 -.00000292  00000+0  00000+0 0  9996
2 26880  12.7297  16.8204 0000144 218.2546 325.1757  0.99200291 32391
INTELSAT 902 (IS-902)   
1 26900U 01039A   26111.21711297 -.00000286  00000+0  00000+0 0  9996
2 26900   5.9751  72.4637 0004657 316.0911 208.7978  1.00270401 90126
USA 164 (MILSTAR-2 3)   
1 27168U 02001A   26110.93625332  .00000094  00000+0  00000+0 0  9991
2 27168  11.1130  22.2530 0099648   6.5768 176.2634  1.00277083 32388
INTELSAT 904 (IS-904)   
1 27380U 02007A   26111.21155804 -.00000228  00000+0  00000+0 0  9997
2 27380   6.7797  69.8522 0007424 335.0200 209.1085  1.00270502 51198
DIRECTV 5 (TEMPO 1)     
1 27426U 02023A   26111.55235758 -.00000061  00000+0  00000+0 0  9995
2 27426   4.7347  75.9937 0003278 310.9305 271.4463  1.00271160 87559
